IONOSFERA-M 2           
1 61736U 24199B   26166.96222339  .00000046  00000+0  40374-4 0  9996
2 61736  98.7173  40.0580 0001099  39.3714 320.7544 14.22757305130659
PRSC-EO1                
1 62725U 25012A   26166.27955253  .00006175  00000+0  30911-3 0  9996
2 62725  97.4230 238.7768 0004318 259.0551 101.0197 15.17748554 77902
BIOMASS                 
1 63772U 25090A   26166.73803511  .00000849  00000+0  15819-3 0  9997
2 63772  98.0740 354.0763 0001337  94.5009 265.6348 14.67536215 60475
GOSAT-GW (IBUKI GW)     
1 64694U 25141A   26166.96288273  .00000643  00000+0  12183-3 0  9998
2 64694  98.0569 104.2998 0001418  83.7155 276.4211 14.67554357 51662
IONOSFERA-M 3           
1 64876U 25155A   26166.90843424  .00000024  00000+0  30608-4 0  9990
2 64876  98.6024 128.8456 0000941 159.5282 200.5934 14.21486229 46228
IONOSFERA-M 4           
1 64877U 25155B   26166.94327795  .00000028  00000+0  32227-4 0  9996
2 64877  98.6030 128.7970 0001001 120.3259 239.8017 14.21488451 46220
MICROCARB               
1 64899U 25156A   26166.92645368  .00000435  00000+0  76648-4 0  9995
2 64899  97.9832 244.0863 0014977 276.5956  83.3546 14.72324370 47789
CO3D 3                  
1 64900U 25156B   26166.93699633  .00003485  00000+0  16405-3 0  9995
2 64900  97.4334 245.6479 0001454 132.8282 227.3076 15.20202903 49349
CO3D 4                  
1 64901U 25156C   26166.93714842  .00000260  00000+0  15153-4 0  9994
2 64901  97.4334 245.6481 0000317   4.6487 355.4751 15.20191412 49348
CO3D 2                  
1 64902U 25156D   26166.90380538  .00004077  00000+0  19128-3 0  9998
2 64902  97.4333 245.5141 0001521 109.3121 250.8279 15.20210733 49336
CO3D 1                  
1 64903U 25156E   26166.90395738  .00004806  00000+0  22492-3 0  9995
2 64903  97.4334 245.5143 0001312 114.5036 245.6336 15.20210468 49332
PRSC-S1                 
1 65055U 25164A   26166.80540855  .00004236  00000+0  29373-3 0  9996
2 65055  41.1313 295.5947 0006825 335.2813  24.7673 15.06448518 48220
SENTINEL-6B             
1 66514U 25264A   26166.29008502 -.00000066  00000+0 -21011-4 0  9990
2 66514  66.0393 139.1188 0008020 269.2064  90.8032 12.80930005 26920
CAS500-3                
1 66655U 25274F   26166.80338441  .00001092  00000+0  12380-3 0  9998
2 66655  97.7446  94.8858 0006710 113.6182 246.5741 14.88318320 29946
CSG-3                   
1 67304U 26001A   26166.98384763  .00000246  00000+0  37496-4 0  9992
2 67304  97.8885 350.6030 0001355  94.2525 265.8843 14.82153056 24282
PRSC-E03                
1 68835U 26092A   26166.92900644  .00002303  00000+0  15950-3 0  9994
2 68835  38.0005  97.0991 0003953 354.4519   5.6198 15.06663099  7768
CAS500-2                
1 69013U 26100AK  26166.96767299  .00005004  00000+0  23126-3 0  9999
2 69013  97.4080  64.8441 0010821  38.4705 321.7300 15.20577989  6628
