OBJECT_NAME,OBJECT_ID,EPOCH,MEAN_MOTION,ECCENTRICITY,INCLINATION,RA_OF_ASC_NODE,ARG_OF_PERICENTER,MEAN_ANOMALY,EPHEMERIS_TYPE,CLASSIFICATION_TYPE,NORAD_CAT_ID,ELEMENT_SET_NO,REV_AT_EPOCH,BSTAR,MEAN_MOTION_DOT,MEAN_MOTION_DDOT
IONOSFERA-M 2,2024-199B,2026-06-15T23:05:36.100896,14.22757305,.0001099,98.7173,40.0580,39.3714,320.7544,0,U,61736,999,13065,.40373853E-4,.46E-6,0
PRSC-EO1,2025-012A,2026-06-15T06:42:33.338592,15.17748554,.0004318,97.4230,238.7768,259.0551,101.0197,0,U,62725,999,7790,.30911E-3,.6175E-4,0
BIOMASS,2025-090A,2026-06-15T17:42:46.233504,14.67536215,.00013379,98.0740,354.0763,94.5009,265.6348,0,U,63772,999,6047,.15818807E-3,.849E-5,0
GOSAT-GW (IBUKI GW),2025-141A,2026-06-15T23:06:33.067872,14.67554357,.00014188,98.0569,104.2998,83.7155,276.4211,0,U,64694,999,5166,.12183205E-3,.643E-5,0
IONOSFERA-M 3,2025-155A,2026-06-15T21:48:08.718336,14.21486229,.00009415,98.6024,128.8456,159.5282,200.5934,0,U,64876,999,4622,.30608294E-4,.24E-6,0
IONOSFERA-M 4,2025-155B,2026-06-15T22:38:19.214880,14.21488451,.00010016,98.6030,128.7970,120.3259,239.8017,0,U,64877,999,4622,.32226753E-4,.28E-6,0
MICROCARB,2025-156A,2026-06-15T22:14:05.597952,14.72324370,.00149771,97.9832,244.0863,276.5956,83.3546,0,U,64899,999,4778,.76647871E-4,.435E-5,0
CO3D 3,2025-156B,2026-06-15T22:29:16.482912,15.20202903,.00014545,97.4334,245.6479,132.8282,227.3076,0,U,64900,999,4934,.16404663E-3,.3485E-4,0
CO3D 4,2025-156C,2026-06-15T22:29:29.623488,15.20191412,.00003178,97.4334,245.6481,4.6487,355.4751,0,U,64901,999,4934,.15153001E-4,.26E-5,0
CO3D 2,2025-156D,2026-06-15T21:41:28.784832,15.20210733,.00015214,97.4333,245.5141,109.3121,250.8279,0,U,64902,999,4933,.19128364E-3,.4077E-4,0
CO3D 1,2025-156E,2026-06-15T21:41:41.917632,15.20210468,.00013125,97.4334,245.5143,114.5036,245.6336,0,U,64903,999,4933,.22492263E-3,.4806E-4,0
PRSC-S1,2025-164A,2026-06-15T19:19:47.298720,15.06448518,.00068256,41.1313,295.5947,335.2813,24.7673,0,U,65055,999,4822,.29373401E-3,.4236E-4,0
SENTINEL-6B,2025-264A,2026-06-15T06:57:43.345728,12.80930005,.000802,66.0393,139.1188,269.2064,90.8032,0,U,66514,999,2692,-.21011E-4,-.66E-6,0
CAS500-3,2025-274F,2026-06-15T19:16:52.413024,14.88318320,.00067109,97.7446,94.8858,113.6182,246.5741,0,U,66655,999,2994,.1237984E-3,.1092E-4,0
CSG-3,2026-001A,2026-06-15T23:36:44.435232,14.82153056,.00013551,97.8885,350.6030,94.2525,265.8843,0,U,67304,999,2428,.37495784E-4,.246E-5,0
PRSC-E03,2026-092A,2026-06-15T22:17:46.156416,15.06663099,.00039539,38.0005,97.0991,354.4519,5.6198,0,U,68835,999,776,.15950035E-3,.2303E-4,0
CAS500-2,2026-100AK,2026-06-15T23:13:26.946336,15.20577989,.00108219,97.4080,64.8441,38.4705,321.7300,0,U,69013,999,662,.23125525E-3,.5004E-4,0
